OBJECT_NAME,OBJECT_ID,EPOCH,MEAN_MOTION,ECCENTRICITY,INCLINATION,RA_OF_ASC_NODE,ARG_OF_PERICENTER,MEAN_ANOMALY,EPHEMERIS_TYPE,CLASSIFICATION_TYPE,NORAD_CAT_ID,ELEMENT_SET_NO,REV_AT_EPOCH,BSTAR,MEAN_MOTION_DOT,MEAN_MOTION_DDOT
GLOBALSTAR M069,2007-020C,2026-07-15T07:30:21.938688,12.23472227,.00016511,52.0010,172.5192,210.5573,290.1472,0,U,31573,999,88224,-.19911909E-3,-.114E-5,0
GLOBALSTAR M072,2007-020D,2026-07-15T00:10:48.948672,11.91658796,.00016558,51.9948,26.1802,35.0951,131.6363,0,U,31574,999,87829,.1954444E-3,-.7E-6,0
GLOBALSTAR M066,2007-048C,2026-07-15T15:51:02.315808,12.30389489,.00055941,51.9609,336.1749,102.7371,269.9817,0,U,32265,999,86373,.36375337E-3,-.52E-6,0
GLOBALSTAR M079,2010-054A,2026-07-14T20:39:29.099808,12.62266417,.00011197,52.0053,24.4276,77.0818,29.8542,0,U,37188,999,72604,.9191188E-5,-.102E-5,0
GLOBALSTAR M074,2010-054B,2026-07-15T12:01:27.791904,12.62262020,.00008667,52.0031,21.7395,93.2012,284.5754,0,U,37189,999,72673,.2541554E-5,-.103E-5,0
GLOBALSTAR M076,2010-054C,2026-07-15T10:41:51.622368,12.62262423,.00010923,52.0044,22.1135,93.3199,273.0422,0,U,37190,999,72644,.99694047E-4,-.86E-6,0
GLOBALSTAR M077,2010-054D,2026-07-15T03:18:55.221696,11.67547472,.0002271,51.9955,108.3514,225.1845,282.4065,0,U,37191,999,72440,-.39887007E-3,-.1E-5,0
GLOBALSTAR M075,2010-054E,2026-07-15T00:19:08.510016,12.62267841,.00007509,51.9953,65.4683,64.7636,76.0712,0,U,37192,999,72545,.76821346E-4,-.9E-6,0
GLOBALSTAR M073,2010-054F,2026-07-15T13:17:59.701344,12.62266867,.00010595,52.0081,337.9443,96.7113,341.4488,0,U,37193,999,72751,-.23289059E-4,-.108E-5,0
GLOBALSTAR M083,2011-033A,2026-07-15T13:44:50.954208,12.62264174,.00007702,51.9866,286.0787,107.2171,357.0003,0,U,37739,999,69653,.16682019E-3,-.74E-6,0
GLOBALSTAR M088,2011-033B,2026-07-15T09:40:40.404288,12.62269477,.00000497,52.0185,193.0889,116.6221,55.3886,0,U,37740,999,69205,-.38672772E-4,-.111E-5,0
GLOBALSTAR M091,2011-033C,2026-07-15T15:41:09.089088,12.62264251,.00004336,51.9981,155.2505,24.3021,146.4094,0,U,37741,999,69287,-.98039395E-4,-.121E-5,0
GLOBALSTAR M085,2011-033D,2026-07-15T03:50:19.423392,12.62264320,.0000777,52.0123,108.0701,40.8993,105.6049,0,U,37742,999,69332,.17363347E-4,-.101E-5,0
GLOBALSTAR M081,2011-033E,2026-07-15T06:31:20.909856,12.62265266,.00006689,51.9952,110.1337,54.9350,119.8013,0,U,37743,999,69348,-.25303281E-4,-.108E-5,0
GLOBALSTAR M089,2011-033F,2026-07-15T01:42:31.432896,12.62267582,.00006974,51.9936,64.8979,89.4454,74.5153,0,U,37744,999,69430,.77649472E-4,-.9E-6,0
GLOBALSTAR M084,2011-080A,2026-07-15T11:05:21.032736,12.62263504,.00008243,52.0021,291.2057,129.9842,310.7473,0,U,38040,999,67233,.10404154E-3,-.85E-6,0
GLOBALSTAR M080,2011-080B,2026-07-15T10:23:26.721024,12.62257435,.00002984,52.0069,293.0224,83.1716,355.0622,0,U,38041,999,67245,.11594858E-3,-.83E-6,0
GLOBALSTAR M082,2011-080C,2026-07-15T10:53:19.711104,12.62264246,.0000194,52.0062,248.4631,88.4428,14.0807,0,U,38042,999,67316,.17723354E-3,-.72E-6,0
GLOBALSTAR M092,2011-080D,2026-07-15T07:54:06.602976,12.62267808,.00007811,52.0105,339.2389,102.9740,273.0846,0,U,38043,999,67160,.86219809E-4,-.88E-6,0
GLOBALSTAR M090,2011-080E,2026-07-15T07:36:29.637216,12.62269578,.00004273,52.0106,242.8440,91.1185,348.7415,0,U,38044,999,67326,.28459492E-3,-.53E-6,0
GLOBALSTAR M086,2011-080F,2026-07-15T10:09:45.575424,12.62287762,.0001511,51.9879,242.4025,112.0880,355.3845,0,U,38045,999,67322,.91630565E-4,-.87E-6,0
GLOBALSTAR M097,2013-005A,2026-07-15T06:33:26.992512,12.62271384,.00004446,52.0027,157.8386,40.0148,320.0752,0,U,39072,999,62045,-.12925069E-3,-.127E-5,0
GLOBALSTAR M093,2013-005B,2026-07-15T05:54:54.412704,12.62266324,.00006524,52.0089,151.2776,44.1868,315.9050,0,U,39073,999,62040,-.88022126E-4,-.12E-5,0
GLOBALSTAR M094,2013-005C,2026-07-15T00:12:37.331424,12.62264165,.00009899,51.9973,66.0909,62.0103,298.0864,0,U,39074,999,62198,-.1318625E-5,-.104E-5,0
GLOBALSTAR M096,2013-005D,2026-07-15T04:20:09.100896,12.62265715,.00007423,52.0070,114.3905,41.7537,318.3386,0,U,39075,999,62092,.9027935E-5,-.102E-5,0
GLOBALSTAR M078,2013-005E,2026-07-15T07:29:30.334560,12.62260155,.0000836,51.9844,197.9620,338.5356,21.5475,0,U,39076,999,61956,-.53689554E-4,-.113E-5,0
GLOBALSTAR M095,2013-005F,2026-07-15T10:01:56.988480,12.62264158,.00004556,52.0055,195.2834,13.0160,347.0719,0,U,39077,999,61943,-.6187591E-4,-.115E-5,0
GLOBALSTAR M087,2022-064A,2026-07-15T08:26:48.310656,12.62269278,.0000904,52.0013,336.7066,85.9295,274.1675,0,U,52888,999,19469,.1591102E-5,-.103E-5,0
